STARLINK-4516           
1 53549U 22101Y   22274.58334491 -.01058914  00000+0 -15875-1 0  9992
2 53549  53.2172 303.3643 0001272  63.3888  76.1100 15.56936142  1309
STARLINK-4518           
1 53550U 22101Z   22274.58334491 -.01058793  00000+0 -15864-1 0  9997
2 53550  53.2173 303.3905 0001309  59.8370  82.4109 15.56950972  1306
STARLINK-4514           
1 53551U 22101AA  22274.58334491 -.01058974  00000+0 -15872-1 0  9998
2 53551  53.2173 303.3732 0001238  67.9075  72.3591 15.56943095  1309
STARLINK-4495           
1 53552U 22101AB  22274.58334491 -.01081247  00000+0 -16211-1 0  9996
2 53552  53.2171 303.4054 0001350  53.2402  91.3034 15.56988411  1307
STARLINK-4501           
1 53553U 22101AC  22274.58334491 -.01086443  00000+0 -16302-1 0  9991
2 53553  53.2170 303.3952 0001468  50.7347  92.2710 15.56978843  1302
STARLINK-4506           
1 53554U 22101AD  22274.58334491 -.01058453  00000+0 -15837-1 0  9994
2 53554  53.2174 303.4244 0001530  45.0103 101.0763 15.56985130  1303
STARLINK-4504           
1 53555U 22101AE  22274.58334491 -.01058695  00000+0 -15854-1 0  9992
2 53555  53.2173 303.3975 0001375  54.3762  89.4076 15.56964505  1303
STARLINK-4505           
1 53556U 22101AF  22274.58334491 -.01058559  00000+0 -15831-1 0  9997
2 53556  53.2174 303.4421 0001419  51.5736  96.0477 15.56999025  1305
STARLINK-4502           
1 53557U 22101AG  22274.58334491 -.01058510  00000+0 -15842-1 0  9997
2 53557  53.2173 303.4153 0001540  44.4642 100.8549 15.56978215  1301
STARLINK-4494           
1 53558U 22101AH  22274.58334491 -.00011681  00000+0 -78768-4 0  9994
2 53558  53.2149 302.9519 0004365   2.1458 354.7997 15.73222007  1306
STARLINK-4508           
1 53559U 22101AJ  22274.58334491 -.01058655  00000+0 -15837-1 0  9993
2 53559  53.2174 303.4330 0001346  57.0620  89.7920 15.56992177  1302
STARLINK-4564           
1 53560U 22101AK  22274.58334491 -.00015776  00000+0 -10792-3 0  9998
2 53560  53.2146 302.9470 0004398   4.5221 353.6105 15.73236897  1303
STARLINK-4563           
1 53561U 22101AL  22274.58334491 -.01083217  00000+0 -16221-1 0  9996
2 53561  53.2172 303.4481 0001428  55.2555  93.1251 15.57024621  1305
STARLINK-4565           
1 53562U 22101AM  22274.58334491 -.00005719  00000+0 -36284-4 0  9991
2 53562  53.2146 302.9446 0004263   3.2608 355.9617 15.73208289  1301
STARLINK-4561           
1 53563U 22101AN  22274.58334491  .00020486  00000+0  14997-3 0  9994
2 53563  53.2147 302.9488 0004309 355.2781   2.2566 15.73202846  1300
STARLINK-4577           
1 53564U 22101AP  22274.58334491 -.00020916  00000+0 -14473-3 0  9994
2 53564  53.2144 302.9404 0004384 358.3004   2.2307 15.73219947  1315
STARLINK-4575           
1 53565U 22101AQ  22274.58334491  .00004253  00000+0  34677-4 0  9998
2 53565  53.2147 302.9453 0004349   4.4506 354.2923 15.73231507  1309
STARLINK-4576           
1 53566U 22101AR  22274.58334491  .00057428  00000+0  41104-3 0  9993
2 53566  53.2147 302.9402 0004402 358.8954   2.8345 15.73176891  1305
STARLINK-4585           
1 53567U 22101AS  22274.58334491 -.00016349  00000+0 -11211-3 0  9999
2 53567  53.2148 302.9446 0004306   1.7303 358.1856 15.73217029  1303
STARLINK-4583           
1 53568U 22101AT  22274.58334491  .00003661  00000+0  30510-4 0  9995
2 53568  53.2146 302.9359 0004331   5.1081 358.4275 15.73204155  1308
STARLINK-4582           
1 53569U 22101AU  22274.58334491 -.00075009  00000+0 -53283-3 0  9994
2 53569  53.2146 302.9405 0004258   0.1699   0.9334 15.73269977  1318
STARLINK-4550           
1 53570U 22101AV  22274.58334491 -.00055034  00000+0 -38926-3 0  9999
2 53570  53.2147 302.9376 0004504   3.0196 359.9170 15.73242470  1309
STARLINK-4584           
1 53571U 22101AW  22274.58334491 -.00041506  00000+0 -29207-3 0  9991
2 53571  53.2147 302.9376 0004390   4.8708 357.4394 15.73238796  1308
STARLINK-4555           
1 53572U 22101AX  22274.58334491 -.00065018  00000+0 -46074-3 0  9997
2 53572  53.2149 302.9331 0004275 354.3697  10.9180 15.73268974  1309
STARLINK-4547           
1 53573U 22101AY  22274.58334491 -.00041464  00000+0 -29200-3 0  9999
2 53573  53.2147 302.9343 0004377   3.2430   0.8961 15.73220170  1300
STARLINK-4559           
1 53574U 22101AZ  22274.58334491 -.00041881  00000+0 -29474-3 0  9996
2 53574  53.2151 302.9327 0004489   6.4546   0.0666 15.73239652  1304
STARLINK-4551           
1 53575U 22101BA  22274.58334491  .00006720  00000+0  52213-4 0  9996
2 53575  53.2147 302.9338 0004370   4.8544 359.8498 15.73226600  1308
STARLINK-4581           
1 53576U 22101BB  22274.58334491 -.00055613  00000+0 -39311-3 0  9997
2 53576  53.2144 302.9270 0004357 357.4347   9.5765 15.73262631  1304
STARLINK-4553           
1 53577U 22101BC  22274.58334491 -.00027350  00000+0 -19087-3 0  9993
2 53577  53.2147 302.9303 0004299   2.5366   3.3943 15.73208119  1300
STARLINK-4556           
1 53578U 22101BD  22274.58334491 -.00019652  00000+0 -13564-3 0  9994
2 53578  53.2148 302.9283 0004529   3.5464   4.1328 15.73228453  1304
STARLINK-4580           
1 53579U 22101BE  22274.58334491 -.00059890  00000+0 -42400-3 0  9994
2 53579  53.2148 302.9263 0004502   4.5371   3.7525 15.73256023  1300
STARLINK-4691           
1 53588U 22104A   22274.58334491 -.01153255  00000+0 -33812-1 0  9993
2 53588  53.2168 119.9499 0001163  83.7679 353.7836 15.37564968  1302
STARLINK-4673           
1 53589U 22104B   22274.58334491 -.01166696  00000+0 -32558-1 0  9993
2 53589  53.2170 119.8837 0001318  68.8691  41.5233 15.39100630  1308
STARLINK-4689           
1 53590U 22104C   22274.58334491 -.01170550  00000+0 -34011-1 0  9995
2 53590  53.2168 119.9359 0001236  96.7787 347.6137 15.37883540  1301
STARLINK-4674           
1 53591U 22104D   22274.58334491 -.01169985  00000+0 -33655-1 0  9999
2 53591  53.2168 119.9220 0001247  96.2687 354.8325 15.38188246  1306
STARLINK-4672           
1 53592U 22104E   22274.58334491 -.01158952  00000+0 -32985-1 0  9997
2 53592  53.2169 119.9099 0001196  80.1391  17.5358 15.38484707  1309
STARLINK-4671           
1 53593U 22104F   22274.58334491 -.01141183  00000+0 -32121-1 0  9998
2 53593  53.2169 119.8960 0001302  95.3156   8.7958 15.38776746  1307
STARLINK-4681           
1 53594U 22104G   22274.58334491 -.01159011  00000+0 -31683-1 0  9990
2 53594  53.2170 119.8605 0001314  65.7300  56.8273 15.39705310  1305
STARLINK-4684           
1 53595U 22104H   22274.58334491 -.01172028  00000+0 -32389-1 0  9998
2 53595  53.2170 119.8714 0001213  88.5539  27.9872 15.39410007  1302
STARLINK-4668           
1 53596U 22104J   22274.58334491 -.01171374  00000+0 -31400-1 0  9995
2 53596  53.2169 119.8366 0001325 104.0580  30.0994 15.40325079  1304
STARLINK-4682           
1 53597U 22104K   22274.58334491 -.01154176  00000+0 -31224-1 0  9991
2 53597  53.2170 119.8477 0001330  88.4331  39.9981 15.40007066  1302
STARLINK-4676           
1 53598U 22104L   22274.58334491 -.01143584  00000+0 -29990-1 0  9990
2 53598  53.2171 119.8158 0001385  93.6099  51.6051 15.40914244  1303
STARLINK-4665           
1 53599U 22104M   22274.58334491  .00136029  00000+0  54134-3 0  9994
2 53599  53.2143 115.2934 0001115 321.3311 252.5250 15.85771354  1309
STARLINK-4677           
1 53600U 22104N   22274.58334491 -.01144296  00000+0 -29403-1 0  9994
2 53600  53.2169 119.7939 0001363  93.1884  62.5164 15.41524935  1304
STARLINK-4675           
1 53601U 22104P   22274.58334491 -.01168425  00000+0 -30999-1 0  9997
2 53601  53.2170 119.8254 0001294  94.1995  45.5522 15.40628075  1303
STARLINK-4648           
1 53602U 22104Q   22274.58334491 -.01068592  00000+0 -18262-1 0  9991
2 53602  53.2168 118.1095 0001236 106.9694 164.9308 15.53428464  1302
STARLINK-4692           
1 53603U 22104R   22274.58334491 -.01074058  00000+0 -18385-1 0  9992
2 53603  53.2167 118.1127 0001253 107.6395 162.5782 15.53398252  1304
STARLINK-4690           
1 53604U 22104S   22274.58334491 -.01059908  00000+0 -18059-1 0  9998
2 53604  53.2170 118.1036 0001282 114.6253 160.5397 15.53488455  1306
STARLINK-4693           
1 53605U 22104T   22274.58334491 -.01153380  00000+0 -29957-1 0  9997
2 53605  53.2169 119.8039 0001282  88.0004  62.5259 15.41226655  1301
STARLINK-4590           
1 53606U 22104U   22274.58334491  .00022867  00000+0  16667-3 0  9996
2 53606  53.2143 117.4778 0001231 120.0485 106.6100 15.73232651  1305
STARLINK-4591           
1 53607U 22104V   22274.58334491 -.01067196  00000+0 -18217-1 0  9995
2 53607  53.2168 118.1066 0001178  91.6883 181.7313 15.53457047  1302
STARLINK-4647           
1 53608U 22104W   22274.58334491  .00026017  00000+0  18912-3 0  9994
2 53608  53.2146 117.4770 0001177 128.4468  96.4738 15.73211826  1308
STARLINK-4660           
1 53609U 22104X   22274.58334491 -.01075833  00000+0 -18327-1 0  9996
2 53609  53.2167 118.0995 0001364 121.4202 155.3675 15.53533353  1300
STARLINK-4610           
1 53610U 22104Y   22274.58334491  .00010137  00000+0  76501-4 0  9992
2 53610  53.2147 117.4756 0001200 128.7135  97.3424 15.73217600  1305
STARLINK-4650           
1 53611U 22104Z   22274.58334491  .00009541  00000+0  72292-4 0  9993
2 53611  53.2145 117.4771 0001150 125.8763  98.4022 15.73209423  1300
STARLINK-4658           
1 53612U 22104AA  22274.58334491  .00046002  00000+0  33052-3 0  9997
2 53612  53.2146 117.4718 0001586 140.0708  87.7842 15.73190305  1303
STARLINK-4655           
1 53613U 22104AB  22274.58334491  .00012939  00000+0  96462-4 0  9995
2 53613  53.2145 117.4757 0001226 111.8513 113.6415 15.73200563  1300
STARLINK-4605           
1 53616U 22104AE  22274.58334491 -.00040957  00000+0 -28819-3 0  9991
2 53616  53.2161 116.7658 0001054  91.4421 120.2933 15.73251912  1306
STARLINK-4601           
1 53617U 22104AF  22274.58334491 -.00036754  00000+0 -25850-3 0  9994
2 53617  53.2149 117.4728 0001383 119.6040 108.8302 15.73208779  1309
STARLINK-4604           
1 53618U 22104AG  22274.58334491  .00042424  00000+0  30514-3 0  9997
2 53618  53.2151 117.4690 0001071 121.1210 109.7299 15.73201696  1308
